STARLINK-3735           
1 52116U 22029AE  26068.41294454  .00001238  00000+0  95847-4 0  9995
2 52116  53.2171  80.3624 0001465  68.6524 291.4625 15.08833160220745
KUIPER-00148            
1 65769U 25217H   26068.27522507  .00015783  00000+0  98730-3 0  9995
2 65769  51.8794  26.5769 0008108 351.8096   8.2745 15.09536529 25078
