[{"OBJECT_NAME":"STARLINK-3735","OBJECT_ID":"2022-029AE","EPOCH":"2026-03-09T09:54:38.408256","MEAN_MOTION":15.0883316,"ECCENTRICITY":0.00014655,"INCLINATION":53.2171,"RA_OF_ASC_NODE":80.3624,"ARG_OF_PERICENTER":68.6524,"MEAN_ANOMALY":291.4625,"EPHEMERIS_TYPE":0,"CLASSIFICATION_TYPE":"U","NORAD_CAT_ID":52116,"ELEMENT_SET_NO":999,"REV_AT_EPOCH":22074,"BSTAR":9.5846924e-5,"MEAN_MOTION_DOT":1.238e-5,"MEAN_MOTION_DDOT":0},{"OBJECT_NAME":"KUIPER-00148","OBJECT_ID":"2025-217H","EPOCH":"2026-03-09T06:36:19.446048","MEAN_MOTION":15.09536529,"ECCENTRICITY":0.00081087,"INCLINATION":51.8794,"RA_OF_ASC_NODE":26.5769,"ARG_OF_PERICENTER":351.8096,"MEAN_ANOMALY":8.2745,"EPHEMERIS_TYPE":0,"CLASSIFICATION_TYPE":"U","NORAD_CAT_ID":65769,"ELEMENT_SET_NO":999,"REV_AT_EPOCH":2507,"BSTAR":0.00098730243,"MEAN_MOTION_DOT":0.00015783,"MEAN_MOTION_DDOT":0}]
